[{"OBJECT_NAME":"STARLINK-11511 [DTC]","OBJECT_ID":"2024-254G","EPOCH":"2025-07-29T11:10:39.597312","MEAN_MOTION":15.70908124,"ECCENTRICITY":0.000175,"INCLINATION":42.9996,"RA_OF_ASC_NODE":128.5242,"ARG_OF_PERICENTER":284.4134,"MEAN_ANOMALY":75.654,"EPHEMERIS_TYPE":0,"CLASSIFICATION_TYPE":"U","NORAD_CAT_ID":62468,"ELEMENT_SET_NO":999,"REV_AT_EPOCH":3429,"BSTAR":0.001659,"MEAN_MOTION_DOT":0.00218746,"MEAN_MOTION_DDOT":0},{"OBJECT_NAME":"STARLINK-11505 [DTC]","OBJECT_ID":"2024-254H","EPOCH":"2025-07-29T21:36:17.002656","MEAN_MOTION":15.7083977,"ECCENTRICITY":0.0001086,"INCLINATION":42.9983,"RA_OF_ASC_NODE":125.7561,"ARG_OF_PERICENTER":223.4429,"MEAN_ANOMALY":136.6354,"EPHEMERIS_TYPE":0,"CLASSIFICATION_TYPE":"U","NORAD_CAT_ID":62469,"ELEMENT_SET_NO":999,"REV_AT_EPOCH":3435,"BSTAR":0.0014874,"MEAN_MOTION_DOT":0.00194945,"MEAN_MOTION_DDOT":0},{"OBJECT_NAME":"STARLINK-11497 [DTC]","OBJECT_ID":"2024-254J","EPOCH":"2025-07-29T11:18:18.492768","MEAN_MOTION":15.71117905,"ECCENTRICITY":0.0002398,"INCLINATION":43,"RA_OF_ASC_NODE":128.5654,"ARG_OF_PERICENTER":294.614,"MEAN_ANOMALY":65.4477,"EPHEMERIS_TYPE":0,"CLASSIFICATION_TYPE":"U","NORAD_CAT_ID":62470,"ELEMENT_SET_NO":999,"REV_AT_EPOCH":3429,"BSTAR":0.0019302,"MEAN_MOTION_DOT":0.00258069,"MEAN_MOTION_DDOT":0},{"OBJECT_NAME":"STARLINK-11477 [DTC]","OBJECT_ID":"2024-254K","EPOCH":"2025-07-29T11:11:57.750432","MEAN_MOTION":15.70940088,"ECCENTRICITY":0.0003376,"INCLINATION":42.9975,"RA_OF_ASC_NODE":128.5299,"ARG_OF_PERICENTER":276.7555,"MEAN_ANOMALY":83.2928,"EPHEMERIS_TYPE":0,"CLASSIFICATION_TYPE":"U","NORAD_CAT_ID":62471,"ELEMENT_SET_NO":999,"REV_AT_EPOCH":3428,"BSTAR":0.0014104,"MEAN_MOTION_DOT":0.00185425,"MEAN_MOTION_DDOT":0},{"OBJECT_NAME":"STARLINK-11500 [DTC]","OBJECT_ID":"2024-254L","EPOCH":"2025-07-29T01:30:43.117920","MEAN_MOTION":15.70985328,"ECCENTRICITY":9.37e-5,"INCLINATION":42.9981,"RA_OF_ASC_NODE":130.6524,"ARG_OF_PERICENTER":220.4244,"MEAN_ANOMALY":139.6554,"EPHEMERIS_TYPE":0,"CLASSIFICATION_TYPE":"U","NORAD_CAT_ID":62472,"ELEMENT_SET_NO":999,"REV_AT_EPOCH":3370,"BSTAR":0.0012904,"MEAN_MOTION_DOT":0.0016958,"MEAN_MOTION_DDOT":0},{"OBJECT_NAME":"STARLINK-11464 [DTC]","OBJECT_ID":"2024-254M","EPOCH":"2025-07-29T11:25:57.122976","MEAN_MOTION":15.70893965,"ECCENTRICITY":0.0001177,"INCLINATION":43.0011,"RA_OF_ASC_NODE":128.6072,"ARG_OF_PERICENTER":270.8803,"MEAN_ANOMALY":89.193,"EPHEMERIS_TYPE":0,"CLASSIFICATION_TYPE":"U","NORAD_CAT_ID":62473,"ELEMENT_SET_NO":999,"REV_AT_EPOCH":3434,"BSTAR":0.0014236,"MEAN_MOTION_DOT":0.00186804,"MEAN_MOTION_DDOT":0},{"OBJECT_NAME":"STARLINK-11502 [DTC]","OBJECT_ID":"2024-254N","EPOCH":"2025-07-29T01:53:39.357600","MEAN_MOTION":15.70988816,"ECCENTRICITY":8.17e-5,"INCLINATION":42.9976,"RA_OF_ASC_NODE":130.778,"ARG_OF_PERICENTER":188.3326,"MEAN_ANOMALY":171.7528,"EPHEMERIS_TYPE":0,"CLASSIFICATION_TYPE":"U","NORAD_CAT_ID":62474,"ELEMENT_SET_NO":999,"REV_AT_EPOCH":3423,"BSTAR":0.0012931,"MEAN_MOTION_DOT":0.0016997,"MEAN_MOTION_DDOT":0},{"OBJECT_NAME":"STARLINK-32657","OBJECT_ID":"2024-254P","EPOCH":"2025-07-29T10:51:05.976864","MEAN_MOTION":15.27594662,"ECCENTRICITY":9.64e-5,"INCLINATION":43.0003,"RA_OF_ASC_NODE":200.3935,"ARG_OF_PERICENTER":256.1941,"MEAN_ANOMALY":103.8804,"EPHEMERIS_TYPE":0,"CLASSIFICATION_TYPE":"U","NORAD_CAT_ID":62475,"ELEMENT_SET_NO":999,"REV_AT_EPOCH":3332,"BSTAR":0.00069816,"MEAN_MOTION_DOT":0.00019008,"MEAN_MOTION_DDOT":0},{"OBJECT_NAME":"STARLINK-32734","OBJECT_ID":"2024-254Q","EPOCH":"2025-07-29T09:50:56.627232","MEAN_MOTION":15.27589669,"ECCENTRICITY":0.000142,"INCLINATION":43.0013,"RA_OF_ASC_NODE":197.4802,"ARG_OF_PERICENTER":269.0171,"MEAN_ANOMALY":91.0518,"EPHEMERIS_TYPE":0,"CLASSIFICATION_TYPE":"U","NORAD_CAT_ID":62476,"ELEMENT_SET_NO":999,"REV_AT_EPOCH":3350,"BSTAR":0.00070432,"MEAN_MOTION_DOT":0.00019175,"MEAN_MOTION_DDOT":0},{"OBJECT_NAME":"STARLINK-32733","OBJECT_ID":"2024-254R","EPOCH":"2025-07-29T01:02:48.860448","MEAN_MOTION":15.27614877,"ECCENTRICITY":0.0001893,"INCLINATION":42.9987,"RA_OF_ASC_NODE":199.0166,"ARG_OF_PERICENTER":207.9558,"MEAN_ANOMALY":152.1192,"EPHEMERIS_TYPE":0,"CLASSIFICATION_TYPE":"U","NORAD_CAT_ID":62477,"ELEMENT_SET_NO":999,"REV_AT_EPOCH":3345,"BSTAR":0.00083317,"MEAN_MOTION_DOT":0.0002276,"MEAN_MOTION_DDOT":0},{"OBJECT_NAME":"STARLINK-32707","OBJECT_ID":"2024-254S","EPOCH":"2025-07-29T15:52:45.983712","MEAN_MOTION":15.27596977,"ECCENTRICITY":0.0001064,"INCLINATION":42.9975,"RA_OF_ASC_NODE":195.9171,"ARG_OF_PERICENTER":269.2891,"MEAN_ANOMALY":90.7839,"EPHEMERIS_TYPE":0,"CLASSIFICATION_TYPE":"U","NORAD_CAT_ID":62478,"ELEMENT_SET_NO":999,"REV_AT_EPOCH":3354,"BSTAR":0.00053443,"MEAN_MOTION_DOT":0.00014481,"MEAN_MOTION_DDOT":0},{"OBJECT_NAME":"STARLINK-32705","OBJECT_ID":"2024-254T","EPOCH":"2025-07-29T09:57:40.269024","MEAN_MOTION":15.27612575,"ECCENTRICITY":0.0001973,"INCLINATION":43.0005,"RA_OF_ASC_NODE":189.7262,"ARG_OF_PERICENTER":269.0655,"MEAN_ANOMALY":90.9971,"EPHEMERIS_TYPE":0,"CLASSIFICATION_TYPE":"U","NORAD_CAT_ID":62479,"ELEMENT_SET_NO":999,"REV_AT_EPOCH":3343,"BSTAR":0.0010951,"MEAN_MOTION_DOT":0.00030026,"MEAN_MOTION_DDOT":0},{"OBJECT_NAME":"STARLINK-32743","OBJECT_ID":"2024-254U","EPOCH":"2025-07-29T10:16:37.743168","MEAN_MOTION":15.27604629,"ECCENTRICITY":0.0001936,"INCLINATION":43.0011,"RA_OF_ASC_NODE":196.7489,"ARG_OF_PERICENTER":264.579,"MEAN_ANOMALY":95.4841,"EPHEMERIS_TYPE":0,"CLASSIFICATION_TYPE":"U","NORAD_CAT_ID":62480,"ELEMENT_SET_NO":999,"REV_AT_EPOCH":3351,"BSTAR":0.0010077,"MEAN_MOTION_DOT":0.00027593,"MEAN_MOTION_DDOT":0},{"OBJECT_NAME":"STARLINK-32753","OBJECT_ID":"2024-254V","EPOCH":"2025-07-29T23:12:05.563584","MEAN_MOTION":15.27603825,"ECCENTRICITY":3.47e-5,"INCLINATION":42.9959,"RA_OF_ASC_NODE":193.906,"ARG_OF_PERICENTER":163.3681,"MEAN_ANOMALY":196.7182,"EPHEMERIS_TYPE":0,"CLASSIFICATION_TYPE":"U","NORAD_CAT_ID":62481,"ELEMENT_SET_NO":999,"REV_AT_EPOCH":3359,"BSTAR":0.0010404,"MEAN_MOTION_DOT":0.00028499,"MEAN_MOTION_DDOT":0},{"OBJECT_NAME":"STARLINK-32699","OBJECT_ID":"2024-254W","EPOCH":"2025-07-29T23:15:06.849792","MEAN_MOTION":15.27586518,"ECCENTRICITY":0.0001373,"INCLINATION":42.9997,"RA_OF_ASC_NODE":197.389,"ARG_OF_PERICENTER":268.6718,"MEAN_ANOMALY":91.3976,"EPHEMERIS_TYPE":0,"CLASSIFICATION_TYPE":"U","NORAD_CAT_ID":62482,"ELEMENT_SET_NO":999,"REV_AT_EPOCH":3340,"BSTAR":0.00082957,"MEAN_MOTION_DOT":0.00022641,"MEAN_MOTION_DDOT":0},{"OBJECT_NAME":"STARLINK-32713","OBJECT_ID":"2025-003A","EPOCH":"2025-07-29T09:55:28.729344","MEAN_MOTION":15.27574773,"ECCENTRICITY":0.0001665,"INCLINATION":42.9983,"RA_OF_ASC_NODE":109.9839,"ARG_OF_PERICENTER":275.3695,"MEAN_ANOMALY":84.6967,"EPHEMERIS_TYPE":0,"CLASSIFICATION_TYPE":"U","NORAD_CAT_ID":62487,"ELEMENT_SET_NO":999,"REV_AT_EPOCH":3250,"BSTAR":0.00065116,"MEAN_MOTION_DOT":0.00017697,"MEAN_MOTION_DDOT":0}]
