STARLINK-11511 [DTC]    
1 62468U 24254G   25210.46573608  .00218746  00000+0  16590-2 0  9992
2 62468  42.9996 128.5242 0001750 284.4134  75.6540 15.70908124 34292
STARLINK-11505 [DTC]    
1 62469U 24254H   25210.90019679  .00194945  00000+0  14874-2 0  9992
2 62469  42.9983 125.7561 0001086 223.4429 136.6354 15.70839770 34352
STARLINK-11497 [DTC]    
1 62470U 24254J   25210.47104737  .00258069  00000+0  19302-2 0  9995
2 62470  43.0000 128.5654 0002398 294.6140  65.4477 15.71117905 34295
STARLINK-11477 [DTC]    
1 62471U 24254K   25210.46664063  .00185425  00000+0  14104-2 0  9998
2 62471  42.9975 128.5299 0003376 276.7555  83.2928 15.70940088 34281
STARLINK-11500 [DTC]    
1 62472U 24254L   25210.06299905  .00169580  00000+0  12904-2 0  9994
2 62472  42.9981 130.6524 0000937 220.4244 139.6554 15.70985328 33708
STARLINK-11464 [DTC]    
1 62473U 24254M   25210.47635559  .00186804  00000+0  14236-2 0  9997
2 62473  43.0011 128.6072 0001177 270.8803  89.1930 15.70893965 34340
STARLINK-11502 [DTC]    
1 62474U 24254N   25210.07892775  .00169970  00000+0  12931-2 0  9994
2 62474  42.9976 130.7780 0000817 188.3326 171.7528 15.70988816 34231
STARLINK-32657          
1 62475U 24254P   25210.45215251  .00019008  00000+0  69816-3 0  9996
2 62475  43.0003 200.3935 0000964 256.1941 103.8804 15.27594662 33327
STARLINK-32734          
1 62476U 24254Q   25210.41037763  .00019175  00000+0  70432-3 0  9994
2 62476  43.0013 197.4802 0001420 269.0171  91.0518 15.27589669 33505
STARLINK-32733          
1 62477U 24254R   25210.04362107  .00022760  00000+0  83317-3 0  9997
2 62477  42.9987 199.0166 0001893 207.9558 152.1192 15.27614877 33450
STARLINK-32707          
1 62478U 24254S   25210.66164333  .00014481  00000+0  53443-3 0  9995
2 62478  42.9975 195.9171 0001064 269.2891  90.7839 15.27596977 33545
STARLINK-32705          
1 62479U 24254T   25210.41504941  .00030026  00000+0  10951-2 0  9991
2 62479  43.0005 189.7262 0001973 269.0655  90.9971 15.27612575 33439
STARLINK-32743          
1 62480U 24254U   25210.42821462  .00027593  00000+0  10077-2 0  9998
2 62480  43.0011 196.7489 0001936 264.5790  95.4841 15.27604629 33512
STARLINK-32753          
1 62481U 24254V   25210.96673106  .00028499  00000+0  10404-2 0  9998
2 62481  42.9959 193.9060 0000347 163.3681 196.7182 15.27603825 33594
STARLINK-32699          
1 62482U 24254W   25210.96882928  .00022641  00000+0  82957-3 0  9999
2 62482  42.9997 197.3890 0001373 268.6718  91.3976 15.27586518 33406
STARLINK-32713          
1 62487U 25003A   25210.41352696  .00017697  00000+0  65116-3 0  9994
2 62487  42.9983 109.9839 0001665 275.3695  84.6967 15.27574773 32506
